{
    "links": {
        "self": "http://www.neowsapp.com/rest/v1/neo/3442523?api_key=iIulBulltgU6a56xZRHN4H3l9WmuAYTsLGpBGhQ2"
    },
    "id": "3442523",
    "neo_reference_id": "3442523",
    "name": "(2008 YG26)",
    "designation": "2008 YG26",
    "nasa_jpl_url": "http://ssd.jpl.nasa.gov/sbdb.cgi?sstr=3442523",
    "absolute_magnitude_h": 21.7,
    "estimated_diameter": {
        "kilometers": {
            "estimated_diameter_min": 0.1214940408,
            "estimated_diameter_max": 0.2716689341
        },
        "meters": {
            "estimated_diameter_min": 121.4940407996,
            "estimated_diameter_max": 271.6689340891
        },
        "miles": {
            "estimated_diameter_min": 0.0754928736,
            "estimated_diameter_max": 0.1688071972
        },
        "feet": {
            "estimated_diameter_min": 398.6025088171,
            "estimated_diameter_max": 891.3023057169
        }
    },
    "is_potentially_hazardous_asteroid": false,
    "close_approach_data": [
        {
            "close_approach_date": "1948-01-13",
            "close_approach_date_full": "1948-Jan-13 16:16",
            "epoch_date_close_approach": -693215040000,
            "relative_velocity": {
                "kilometers_per_second": "16.9705137915",
                "kilometers_per_hour": "61093.8496492664",
                "miles_per_hour": "37961.3423001234"
            },
            "miss_distance": {
                "astronomical": "0.3267538566",
                "lunar": "127.1072502174",
                "kilometers": "48881680.961645442",
                "miles": "30373668.1038614196"
            },
            "orbiting_body": "Earth"
        },
        {
            "close_approach_date": "1976-10-16",
            "close_approach_date_full": "1976-Oct-16 13:22",
            "epoch_date_close_approach": 214320120000,
            "relative_velocity": {
                "kilometers_per_second": "16.2958452711",
                "kilometers_per_hour": "58665.0429761314",
                "miles_per_hour": "36452.1762870301"
            },
            "miss_distance": {
                "astronomical": "0.3812943672",
                "lunar": "148.3235088408",
                "kilometers": "57040825.176117864",
                "miles": "35443525.2263359632"
            },
            "orbiting_body": "Earth"
        },
        {
            "close_approach_date": "2008-12-28",
            "close_approach_date_full": "2008-Dec-28 12:20",
            "epoch_date_close_approach": 1230466800000,
            "relative_velocity": {
                "kilometers_per_second": "10.4945811405",
                "kilometers_per_hour": "37780.4921056571",
                "miles_per_hour": "23475.3285530956"
            },
            "miss_distance": {
                "astronomical": "0.1128030181",
                "lunar": "43.8803740409",
                "kilometers": "16875091.237331447",
                "miles": "10485695.4667180886"
            },
            "orbiting_body": "Earth"
        },
        {
            "close_approach_date": "2025-01-15",
            "close_approach_date_full": "2025-Jan-15 22:37",
            "epoch_date_close_approach": 1736980620000,
            "relative_velocity": {
                "kilometers_per_second": "18.2478038281",
                "kilometers_per_hour": "65692.0937810128",
                "miles_per_hour": "40818.5123829854"
            },
            "miss_distance": {
                "astronomical": "0.3774851113",
                "lunar": "146.8417082957",
                "kilometers": "56470968.607192931",
                "miles": "35089432.7738912078"
            },
            "orbiting_body": "Earth"
        },
        {
            "close_approach_date": "2053-10-22",
            "close_approach_date_full": "2053-Oct-22 18:24",
            "epoch_date_close_approach": 2644770240000,
            "relative_velocity": {
                "kilometers_per_second": "14.4702491231",
                "kilometers_per_hour": "52092.896843174",
                "miles_per_hour": "32368.5002634711"
            },
            "miss_distance": {
                "astronomical": "0.3271242204",
                "lunar": "127.2513217356",
                "kilometers": "48937086.597250548",
                "miles": "30408095.5694036424"
            },
            "orbiting_body": "Earth"
        }
    ],
    "orbital_data": {
        "orbit_id": "22",
        "orbit_determination_date": "2017-04-06 09:01:51",
        "first_observation_date": "2008-12-29",
        "last_observation_date": "2009-02-23",
        "data_arc_in_days": 56,
        "observations_used": 104,
        "orbit_uncertainty": "6",
        "minimum_orbit_intersection": ".0811438",
        "jupiter_tisserand_invariant": "3.474",
        "epoch_osculation": "2459000.5",
        "eccentricity": ".5277976114612826",
        "semi_major_axis": "2.176453647159423",
        "inclination": "9.733093709856043",
        "ascending_node_longitude": "105.0814233661093",
        "orbital_period": "1172.796227270865",
        "perihelion_distance": "1.027726610732483",
        "perihelion_argument": "324.0473295252539",
        "aphelion_distance": "3.325180683586364",
        "perihelion_time": "2459495.465867153389",
        "mean_anomaly": "208.0659231059529",
        "mean_motion": ".3069586954911441",
        "equinox": "J2000",
        "orbit_class": {
            "orbit_class_type": "AMO",
            "orbit_class_description": "Near-Earth asteroid orbits similar to that of 1221 Amor",
            "orbit_class_range": "1.017 AU < q (perihelion) < 1.3 AU"
        }
    },
    "is_sentry_object": false
}